SATCOM 1R               
1 13984U 83030A   26061.68128645 -.00000321  00000+0  00000+0 0  9999
2 13984  13.2990 339.2756 0003999 111.6527  64.9610  0.99850506129414
COSMOS 1191 DEB         
1 13999U 80057G   26060.09255904 -.00000879  00000+0  00000+0 0  9992
2 13999  63.5971 325.4314 7174837  25.4090 356.9271  2.01286741327874
GOES 6                  
1 14050U 83041A   26061.25939562 -.00000083  00000+0  00000+0 0  9992
2 14050  10.3608 321.9137 0002366 306.2017 236.2436  1.00217609214944
GOES 6 AKM              
1 14069U 83041C   26061.45896543 -.00000212  00000+0  00000+0 0  9999
2 14069  15.9385 321.8986 1674749 116.8655 171.2020  0.84336965 38929
INTELSAT 506            
1 14077U 83047A   26061.14072450 -.00000267  00000+0  00000+0 0  9993
2 14077  12.5752 334.3448 0041168 350.5555 204.3033  0.99162036123029
SL-12 R/B(2)            
1 14086U 83016F   26061.37305943  .00000046  00000+0  00000+0 0  9994
2 14086   6.8376 297.6009 0016810 326.6641  24.2690  1.01095918121885
SL-12 R/B(2)            
1 14114U 82044F   26061.37314610 -.00000069  00000+0  00000+0 0  9993
2 14114   8.4301 297.5697 0014169 198.0472 153.9787  1.00260780 46268
SL-12 R/B(2)            
1 14117U 82009F   26061.70437447 -.00000038  00000+0  00000+0 0  9994
2 14117   6.7003 294.7111 0036599 196.8686 149.0823  1.00985626122350
NAHUEL I2 (ANIK C2)     
1 14133U 83059B   26060.99314106 -.00000179  00000+0  00000+0 0  9990
2 14133  13.0119 336.9638 0034847 116.5592 243.8196  0.99125988 45083
PALAPA B1               
1 14134U 83059C   26060.88322576  .00000117  00000+0  00000+0 0  9990
2 14134  11.7222 330.2133 0001714  48.3474 140.6449  1.00154608119710
GALAXY 1 (G-1)          
1 14158U 83065A   26060.15183634 -.00000260  00000+0  00000+0 0  9993
2 14158  13.6738 342.4689 0004143 310.2198 250.8979  1.00145013 45544
SL-12 R/B(2)            
1 14195U 81102F   26060.88582854 -.00000003  00000+0  00000+0 0  9996
2 14195   6.8576 295.2812 0008256 230.2830 129.5877  1.00231967121925
ARABSAT-1DR (TELSTAR 3A)
1 14234U 83077A   26060.80776528 -.00000013  00000+0  00000+0 0  9999
2 14234  13.8600 342.7586 0022606 171.4394 188.6195  0.99520416 45276
INSAT-1B                
1 14318U 83089B   26061.70669590 -.00000326  00000+0  00000+0 0  9992
2 14318  11.3123 327.7185 0010229 261.8531 287.2847  1.00181557124141
SATCOM 2R               
1 14328U 83094A   26061.63986457 -.00000321  00000+0  00000+0 0  9990
2 14328  14.3700 346.7216 0014046  60.1961 134.6006  0.99414534154494
GALAXY 2 (G-2)          
1 14365U 83098A   26061.47152084  .00000080  00000+0  00000+0 0  9999
2 14365  13.6871 342.7738 0002869  66.4712 139.2501  1.00166697131161
EKRAN 11                
1 14377U 83100A   26061.14320646 -.00000291  00000+0  00000+0 0  9996
2 14377   7.9956 305.2609 0004708 348.0041  11.9605  1.00314507 46300
