[{"OBJECT_NAME":"SATCOM 1R","OBJECT_ID":"1983-030A","EPOCH":"2026-03-02T16:21:03.149280","MEAN_MOTION":0.99850506,"ECCENTRICITY":0.0003999,"INCLINATION":13.299,"RA_OF_ASC_NODE":339.2756,"ARG_OF_PERICENTER":111.6527,"MEAN_ANOMALY":64.961,"EPHEMERIS_TYPE":0,"CLASSIFICATION_TYPE":"U","NORAD_CAT_ID":13984,"ELEMENT_SET_NO":999,"REV_AT_EPOCH":12941,"BSTAR":0,"MEAN_MOTION_DOT":-3.21e-6,"MEAN_MOTION_DDOT":0},{"OBJECT_NAME":"COSMOS 1191 DEB","OBJECT_ID":"1980-057G","EPOCH":"2026-03-01T02:13:17.101056","MEAN_MOTION":2.01286741,"ECCENTRICITY":0.7174837,"INCLINATION":63.5971,"RA_OF_ASC_NODE":325.4314,"ARG_OF_PERICENTER":25.409,"MEAN_ANOMALY":356.9271,"EPHEMERIS_TYPE":0,"CLASSIFICATION_TYPE":"U","NORAD_CAT_ID":13999,"ELEMENT_SET_NO":999,"REV_AT_EPOCH":32787,"BSTAR":0,"MEAN_MOTION_DOT":-8.79e-6,"MEAN_MOTION_DDOT":0},{"OBJECT_NAME":"GOES 6","OBJECT_ID":"1983-041A","EPOCH":"2026-03-02T06:13:31.781568","MEAN_MOTION":1.00217609,"ECCENTRICITY":0.00023668,"INCLINATION":10.3608,"RA_OF_ASC_NODE":321.9137,"ARG_OF_PERICENTER":306.2017,"MEAN_ANOMALY":236.2436,"EPHEMERIS_TYPE":0,"CLASSIFICATION_TYPE":"U","NORAD_CAT_ID":14050,"ELEMENT_SET_NO":999,"REV_AT_EPOCH":21494,"BSTAR":0,"MEAN_MOTION_DOT":-8.3e-7,"MEAN_MOTION_DDOT":0},{"OBJECT_NAME":"GOES 6 AKM","OBJECT_ID":"1983-041C","EPOCH":"2026-03-02T11:00:54.613152","MEAN_MOTION":0.84336965,"ECCENTRICITY":0.16747498,"INCLINATION":15.9385,"RA_OF_ASC_NODE":321.8986,"ARG_OF_PERICENTER":116.8655,"MEAN_ANOMALY":171.202,"EPHEMERIS_TYPE":0,"CLASSIFICATION_TYPE":"U","NORAD_CAT_ID":14069,"ELEMENT_SET_NO":999,"REV_AT_EPOCH":3892,"BSTAR":0,"MEAN_MOTION_DOT":-2.12e-6,"MEAN_MOTION_DDOT":0},{"OBJECT_NAME":"INTELSAT 506","OBJECT_ID":"1983-047A","EPOCH":"2026-03-02T03:22:38.596800","MEAN_MOTION":0.99162036,"ECCENTRICITY":0.00411685,"INCLINATION":12.5752,"RA_OF_ASC_NODE":334.3448,"ARG_OF_PERICENTER":350.5555,"MEAN_ANOMALY":204.3033,"EPHEMERIS_TYPE":0,"CLASSIFICATION_TYPE":"U","NORAD_CAT_ID":14077,"ELEMENT_SET_NO":999,"REV_AT_EPOCH":12302,"BSTAR":0,"MEAN_MOTION_DOT":-2.67e-6,"MEAN_MOTION_DDOT":0},{"OBJECT_NAME":"SL-12 R/B(2)","OBJECT_ID":"1983-016F","EPOCH":"2026-03-02T08:57:12.334752","MEAN_MOTION":1.01095918,"ECCENTRICITY":0.00168105,"INCLINATION":6.8376,"RA_OF_ASC_NODE":297.6009,"ARG_OF_PERICENTER":326.6641,"MEAN_ANOMALY":24.269,"EPHEMERIS_TYPE":0,"CLASSIFICATION_TYPE":"U","NORAD_CAT_ID":14086,"ELEMENT_SET_NO":999,"REV_AT_EPOCH":12188,"BSTAR":0,"MEAN_MOTION_DOT":4.6e-7,"MEAN_MOTION_DDOT":0},{"OBJECT_NAME":"SL-12 R/B(2)","OBJECT_ID":"1982-044F","EPOCH":"2026-03-02T08:57:19.823040","MEAN_MOTION":1.0026078,"ECCENTRICITY":0.00141697,"INCLINATION":8.4301,"RA_OF_ASC_NODE":297.5697,"ARG_OF_PERICENTER":198.0472,"MEAN_ANOMALY":153.9787,"EPHEMERIS_TYPE":0,"CLASSIFICATION_TYPE":"U","NORAD_CAT_ID":14114,"ELEMENT_SET_NO":999,"REV_AT_EPOCH":4626,"BSTAR":0,"MEAN_MOTION_DOT":-6.9e-7,"MEAN_MOTION_DDOT":0},{"OBJECT_NAME":"SL-12 R/B(2)","OBJECT_ID":"1982-009F","EPOCH":"2026-03-02T16:54:17.954208","MEAN_MOTION":1.00985626,"ECCENTRICITY":0.0036599,"INCLINATION":6.7003,"RA_OF_ASC_NODE":294.7111,"ARG_OF_PERICENTER":196.8686,"MEAN_ANOMALY":149.0823,"EPHEMERIS_TYPE":0,"CLASSIFICATION_TYPE":"U","NORAD_CAT_ID":14117,"ELEMENT_SET_NO":999,"REV_AT_EPOCH":12235,"BSTAR":0,"MEAN_MOTION_DOT":-3.8e-7,"MEAN_MOTION_DDOT":0},{"OBJECT_NAME":"NAHUEL I2 (ANIK C2)","OBJECT_ID":"1983-059B","EPOCH":"2026-03-01T23:50:07.387584","MEAN_MOTION":0.99125988,"ECCENTRICITY":0.0034847,"INCLINATION":13.0119,"RA_OF_ASC_NODE":336.9638,"ARG_OF_PERICENTER":116.5592,"MEAN_ANOMALY":243.8196,"EPHEMERIS_TYPE":0,"CLASSIFICATION_TYPE":"U","NORAD_CAT_ID":14133,"ELEMENT_SET_NO":999,"REV_AT_EPOCH":4508,"BSTAR":0,"MEAN_MOTION_DOT":-1.79e-6,"MEAN_MOTION_DDOT":0},{"OBJECT_NAME":"PALAPA B1","OBJECT_ID":"1983-059C","EPOCH":"2026-03-01T21:11:50.705664","MEAN_MOTION":1.00154608,"ECCENTRICITY":0.0001714,"INCLINATION":11.7222,"RA_OF_ASC_NODE":330.2133,"ARG_OF_PERICENTER":48.3474,"MEAN_ANOMALY":140.6449,"EPHEMERIS_TYPE":0,"CLASSIFICATION_TYPE":"U","NORAD_CAT_ID":14134,"ELEMENT_SET_NO":999,"REV_AT_EPOCH":11971,"BSTAR":0,"MEAN_MOTION_DOT":1.17e-6,"MEAN_MOTION_DDOT":0},{"OBJECT_NAME":"GALAXY 1 (G-1)","OBJECT_ID":"1983-065A","EPOCH":"2026-03-01T03:38:38.659776","MEAN_MOTION":1.00145013,"ECCENTRICITY":0.0004143,"INCLINATION":13.6738,"RA_OF_ASC_NODE":342.4689,"ARG_OF_PERICENTER":310.2198,"MEAN_ANOMALY":250.8979,"EPHEMERIS_TYPE":0,"CLASSIFICATION_TYPE":"U","NORAD_CAT_ID":14158,"ELEMENT_SET_NO":999,"REV_AT_EPOCH":4554,"BSTAR":0,"MEAN_MOTION_DOT":-2.6e-6,"MEAN_MOTION_DDOT":0},{"OBJECT_NAME":"SL-12 R/B(2)","OBJECT_ID":"1981-102F","EPOCH":"2026-03-01T21:15:35.585856","MEAN_MOTION":1.00231967,"ECCENTRICITY":0.0008256,"INCLINATION":6.8576,"RA_OF_ASC_NODE":295.2812,"ARG_OF_PERICENTER":230.283,"MEAN_ANOMALY":129.5877,"EPHEMERIS_TYPE":0,"CLASSIFICATION_TYPE":"U","NORAD_CAT_ID":14195,"ELEMENT_SET_NO":999,"REV_AT_EPOCH":12192,"BSTAR":0,"MEAN_MOTION_DOT":-3.0e-8,"MEAN_MOTION_DDOT":0},{"OBJECT_NAME":"ARABSAT-1DR (TELSTAR 3A)","OBJECT_ID":"1983-077A","EPOCH":"2026-03-01T19:23:10.920192","MEAN_MOTION":0.99520416,"ECCENTRICITY":0.00226062,"INCLINATION":13.86,"RA_OF_ASC_NODE":342.7586,"ARG_OF_PERICENTER":171.4394,"MEAN_ANOMALY":188.6195,"EPHEMERIS_TYPE":0,"CLASSIFICATION_TYPE":"U","NORAD_CAT_ID":14234,"ELEMENT_SET_NO":999,"REV_AT_EPOCH":4527,"BSTAR":0,"MEAN_MOTION_DOT":-1.3e-7,"MEAN_MOTION_DDOT":0},{"OBJECT_NAME":"INSAT-1B","OBJECT_ID":"1983-089B","EPOCH":"2026-03-02T16:57:38.525760","MEAN_MOTION":1.00181557,"ECCENTRICITY":0.0010229,"INCLINATION":11.3123,"RA_OF_ASC_NODE":327.7185,"ARG_OF_PERICENTER":261.8531,"MEAN_ANOMALY":287.2847,"EPHEMERIS_TYPE":0,"CLASSIFICATION_TYPE":"U","NORAD_CAT_ID":14318,"ELEMENT_SET_NO":999,"REV_AT_EPOCH":12414,"BSTAR":0,"MEAN_MOTION_DOT":-3.26e-6,"MEAN_MOTION_DDOT":0},{"OBJECT_NAME":"SATCOM 2R","OBJECT_ID":"1983-094A","EPOCH":"2026-03-02T15:21:24.298848","MEAN_MOTION":0.99414534,"ECCENTRICITY":0.0014046,"INCLINATION":14.37,"RA_OF_ASC_NODE":346.7216,"ARG_OF_PERICENTER":60.1961,"MEAN_ANOMALY":134.6006,"EPHEMERIS_TYPE":0,"CLASSIFICATION_TYPE":"U","NORAD_CAT_ID":14328,"ELEMENT_SET_NO":999,"REV_AT_EPOCH":15449,"BSTAR":0,"MEAN_MOTION_DOT":-3.21e-6,"MEAN_MOTION_DDOT":0},{"OBJECT_NAME":"GALAXY 2 (G-2)","OBJECT_ID":"1983-098A","EPOCH":"2026-03-02T11:18:59.400576","MEAN_MOTION":1.00166697,"ECCENTRICITY":0.00028693,"INCLINATION":13.6871,"RA_OF_ASC_NODE":342.7738,"ARG_OF_PERICENTER":66.4712,"MEAN_ANOMALY":139.2501,"EPHEMERIS_TYPE":0,"CLASSIFICATION_TYPE":"U","NORAD_CAT_ID":14365,"ELEMENT_SET_NO":999,"REV_AT_EPOCH":13116,"BSTAR":0,"MEAN_MOTION_DOT":8.0e-7,"MEAN_MOTION_DDOT":0},{"OBJECT_NAME":"EKRAN 11","OBJECT_ID":"1983-100A","EPOCH":"2026-03-02T03:26:13.038144","MEAN_MOTION":1.00314507,"ECCENTRICITY":0.0004708,"INCLINATION":7.9956,"RA_OF_ASC_NODE":305.2609,"ARG_OF_PERICENTER":348.0041,"MEAN_ANOMALY":11.9605,"EPHEMERIS_TYPE":0,"CLASSIFICATION_TYPE":"U","NORAD_CAT_ID":14377,"ELEMENT_SET_NO":999,"REV_AT_EPOCH":4630,"BSTAR":0,"MEAN_MOTION_DOT":-2.91e-6,"MEAN_MOTION_DDOT":0}]
